NORAD_CAT_ID,OBJECT_NAME,OBJECT_TYPE,EPOCH,MEAN_MOTION,ECCENTRICITY,INCLINATION,RA_OF_ASC_NODE,ARG_OF_PERICENTER,MEAN_ANOMALY,BSTAR,MEAN_MOTION_DOT,MEAN_MOTION_DDOT,TLE_LINE0,TLE_LINE1,TLE_LINE2,SEMIMAJOR_AXIS,PERIOD,APOGEE,PERIGEE,DECAYED
53401.0,STARLINK-4525,PAYLOAD,2023-10-20 02:18:20,15.08839789,0.0001688,53.2165,76.8574,82.203,277.9154,0.00019536,2.822e-05,0.0,0 STARLINK-4525,1 53401U 22097P   23293.09607509  .00002822  00000-0  19536-3 0  9999,2 53401  53.2165  76.8574 0001688  82.2030 277.9154 15.08839789 66445,6917.881,95.438,540.914,538.578,0.0
53401.0,STARLINK-4525,PAYLOAD,2023-10-20 10:15:17,15.08832859,0.0001643,53.2162,75.3696,87.6306,272.4874,5.0589e-05,5.17e-06,0.0,0 STARLINK-4525,1 53401U 22097P   23293.42728352  .00000517  00000-0  50589-4 0  9999,2 53401  53.2162  75.3696 0001643  87.6306 272.4874 15.08832859 66492,6917.902,95.438,540.904,538.631,0.0
53401.0,STARLINK-4525,PAYLOAD,2023-10-21 11:41:27,15.08844062,0.0002011,53.2171,70.6093,89.7271,270.3952,-0.00010141,-1.902e-05,0.0,0 STARLINK-4525,1 53401U 22097P   23294.48712483 -.00001902  00000-0 -10141-3 0  9994,2 53401  53.2171  70.6093 0002011  89.7271 270.3952 15.08844062 67141,6917.868,95.437,541.124,538.342,0.0
53401.0,STARLINK-4525,PAYLOAD,2023-10-21 19:38:22,15.08846266,0.0001708,53.2141,69.118,129.0866,231.0279,3.622e-05,2.89e-06,0.0,0 STARLINK-4525,1 53401U 22097P   23294.81831527  .00000289  00000-0  36220-4 0  9994,2 53401  53.2141  69.1180 0001708 129.0866 231.0279 15.08846266 66703,6917.861,95.437,540.908,538.545,0.0
53401.0,STARLINK-4525,PAYLOAD,2023-10-22 01:59:55,15.08833641,0.0002094,53.2171,67.9336,77.3112,282.8114,8.9165e-05,1.131e-05,0.0,0 STARLINK-4525,1 53401U 22097P   23295.08328613  .00001131  00000-0  89165-4 0  9994,2 53401  53.2171  67.9336 0002094  77.3112 282.8114 15.08833641 66742,6917.9,95.438,541.213,538.316,0.0
53401.0,STARLINK-4525,PAYLOAD,2023-10-22 13:07:39,15.08818453,0.0001193,53.2167,65.8556,92.5644,267.5485,4.0736e-05,3.6e-06,0.0,0 STARLINK-4525,1 53401U 22097P   23295.54697955  .00000360  00000-0  40736-4 0  9997,2 53401  53.2167  65.8556 0001193  92.5644 267.5485 15.08818453 66819,6917.946,95.439,540.637,538.986,0.0
53401.0,STARLINK-4525,PAYLOAD,2023-10-22 16:18:25,15.08826866,0.000127,53.2173,65.2597,90.2586,269.8552,1.8415e-05,5e-08,0.0,0 STARLINK-4525,1 53401U 22097P   23295.67945624  .00000005  00000-0  18415-4 0  9995,2 53401  53.2173  65.2597 0001270  90.2586 269.8552 15.08826866 66830,6917.921,95.438,540.664,538.907,0.0
53401.0,STARLINK-4525,PAYLOAD,2023-10-23 01:50:43,15.08842345,0.0001385,53.2177,63.4748,81.7568,278.3581,-1.5096e-05,-5.28e-06,0.0,0 STARLINK-4525,1 53401U 22097P   23296.07689310 -.00000528  00000-0 -15096-4 0  9991,2 53401  53.2177  63.4748 0001385  81.7568 278.3581 15.08842345 66897,6917.873,95.437,540.696,538.78,0.0
53401.0,STARLINK-4525,PAYLOAD,2023-10-23 14:33:47,15.08862733,0.0001328,53.217,61.0958,68.8892,291.2242,-0.00078332,-0.0001274,0.0,0 STARLINK-4525,1 53401U 22097P   23296.60679760 -.00012740  00000-0 -78332-3 0  9998,2 53401  53.2170  61.0958 0001328  68.8892 291.2242 15.08862733 66970,6917.811,95.436,540.595,538.757,0.0
53401.0,STARLINK-4525,PAYLOAD,2023-10-24 01:41:30,15.08840836,0.0001356,53.2171,59.0148,75.9108,284.2034,0.00027074,4.024e-05,0.0,0 STARLINK-4525,1 53401U 22097P   23297.07049079  .00004024  00000-0  27074-3 0  9995,2 53401  53.2171  59.0148 0001356  75.9108 284.2034 15.08840836 67049,6917.878,95.438,540.681,538.805,0.0
53401.0,STARLINK-4525,PAYLOAD,2023-10-24 14:24:35,15.088401,0.0001386,53.2173,56.6357,76.8302,283.2845,0.00020056,2.905e-05,0.0,0 STARLINK-4525,1 53401U 22097P   23297.60041229  .00002905  00000-0  20056-3 0  9992,2 53401  53.2173  56.6357 0001386  76.8302 283.2845 15.08840100 67611,6917.88,95.438,540.704,538.786,0.0
53401.0,STARLINK-4525,PAYLOAD,2023-10-25 14:15:22,15.08845576,0.0001321,53.2189,52.1753,81.3836,278.7306,0.00012109,1.64e-05,0.0,0 STARLINK-4525,1 53401U 22097P   23298.59400824  .00001640  00000-0  12109-3 0  9996,2 53401  53.2189  52.1753 0001321  81.3836 278.7306 15.08845576 67276,6917.863,95.437,540.642,538.814,0.0
53401.0,STARLINK-4525,PAYLOAD,2023-10-26 14:06:09,15.08845368,0.0001422,53.2191,47.7152,82.9307,277.1847,0.00011761,1.585e-05,0.0,0 STARLINK-4525,1 53401U 22097P   23299.58760665  .00001585  00000-0  11761-3 0  9999,2 53401  53.2191  47.7152 0001422  82.9307 277.1847 15.08845368 67917,6917.864,95.437,540.713,538.745,0.0
53401.0,STARLINK-4525,PAYLOAD,2023-10-27 13:56:55,15.08856606,0.0001538,53.2188,43.2573,92.1195,267.9973,0.00025476,3.771e-05,0.0,0 STARLINK-4525,1 53401U 22097P   23300.58119844  .00003771  00000-0  25476-3 0  9996,2 53401  53.2188  43.2573 0001538  92.1195 267.9973 15.08856606 67573,6917.83,95.437,540.759,538.631,0.0
53401.0,STARLINK-4525,PAYLOAD,2023-10-28 13:47:43,15.08827442,0.0001627,53.2194,38.7988,96.2719,263.8459,-0.00016925,-2.98e-05,0.0,0 STARLINK-4525,1 53401U 22097P   23301.57481430 -.00002980  00000-0 -16925-3 0  9991,2 53401  53.2194  38.7988 0001627  96.2719 263.8459 15.08827442 67722,6917.919,95.438,540.909,538.658,0.0
53401.0,STARLINK-4525,PAYLOAD,2023-10-28 23:20:02,15.08842052,0.000168,53.2204,37.0132,110.5373,249.5799,-0.00015791,-2.8e-05,0.0,0 STARLINK-4525,1 53401U 22097P   23301.97224745 -.00002800  00000-0 -15791-3 0  9990,2 53401  53.2204  37.0132 0001680 110.5373 249.5799 15.08842052 67780,6917.874,95.437,540.901,538.577,0.0
53401.0,STARLINK-4525,PAYLOAD,2023-10-29 12:03:06,15.08864065,0.0001506,53.2187,34.6326,76.1613,283.9547,0.00081951,0.00012787,0.0,0 STARLINK-4525,1 53401U 22097P   23302.50216302  .00012787  00000-0  81951-3 0  9994,2 53401  53.2187  34.6326 0001506  76.1613 283.9547 15.08864065 67869,6917.807,95.436,540.714,538.63,0.0
53401.0,STARLINK-4525,PAYLOAD,2023-10-29 23:10:48,15.08856443,0.0001622,53.2183,32.5494,80.5652,279.5523,0.00041901,6.39e-05,0.0,0 STARLINK-4525,1 53401U 22097P   23302.96584344  .00006390  00000-0  41901-3 0  9992,2 53401  53.2183  32.5494 0001622  80.5652 279.5523 15.08856443 67933,6917.83,95.437,540.817,538.573,0.0
53401.0,STARLINK-4525,PAYLOAD,2023-10-30 11:53:54,15.08821967,0.0001455,53.218,30.1726,87.2711,272.8448,0.0012752,0.00020055,0.0,0 STARLINK-4525,1 53401U 22097P   23303.49577195  .00020055  00000-0  12752-2 0  9992,2 53401  53.2180  30.1726 0001455  87.2711 272.8448 15.08821967 68011,6917.936,95.439,540.807,538.794,0.0
53401.0,STARLINK-4525,PAYLOAD,2023-10-31 10:09:19,15.08834454,0.0001719,53.2194,26.0104,86.3306,273.7883,0.00079201,0.00012337,0.0,0 STARLINK-4525,1 53401U 22097P   23304.42314195  .00012337  00000-0  79201-3 0  9992,2 53401  53.2194  26.0104 0001719  86.3306 273.7883 15.08834454 68156,6917.897,95.438,540.952,538.573,0.0
53401.0,STARLINK-4525,PAYLOAD,2023-10-31 13:20:05,15.08838463,0.0001528,53.2184,25.4145,98.2705,261.8461,0.00073174,0.00011376,0.0,0 STARLINK-4525,1 53401U 22097P   23304.55562066  .00011376  00000-0  73174-3 0  9993,2 53401  53.2184  25.4145 0001528  98.2705 261.8461 15.08838463 68666,6917.885,95.438,540.807,538.693,0.0
53401.0,STARLINK-4525,PAYLOAD,2023-10-31 14:55:28,15.08843722,0.0001522,53.2179,25.1164,97.9253,262.1912,0.0008793,0.00013735,0.0,0 STARLINK-4525,1 53401U 22097P   23304.62185988  .00013735  00000-0  87930-3 0  9991,2 53401  53.2179  25.1164 0001522  97.9253 262.1912 15.08843722 68676,6917.869,95.437,540.787,538.681,0.0
53401.0,STARLINK-4525,PAYLOAD,2023-11-01 11:35:29,15.08833958,0.0001344,53.2175,21.251,86.4835,273.6311,0.00023571,3.465e-05,0.0,0 STARLINK-4525,1 53401U 22097P   23305.48298550  .00003465  00000-0  23571-3 0  9996,2 53401  53.2175  21.2510 0001344  86.4835 273.6311 15.08833958 68316,6917.899,95.438,540.694,538.834,0.0
53401.0,STARLINK-4525,PAYLOAD,2023-11-01 14:46:16,15.08845908,0.0001501,53.2179,20.6559,86.1817,273.9346,0.00054056,8.327e-05,0.0,0 STARLINK-4525,1 53401U 22097P   23305.61546351  .00008327  00000-0  54056-3 0  9990,2 53401  53.2179  20.6559 0001501  86.1817 273.9346 15.08845908 68339,6917.862,95.437,540.766,538.689,0.0
53401.0,STARLINK-4525,PAYLOAD,2023-11-02 11:26:16,15.08859462,0.0001444,53.2182,16.7885,87.9077,272.208,0.00072327,0.00011248,0.0,0 STARLINK-4525,1 53401U 22097P   23306.47657815  .00011248  00000-0  72327-3 0  9990,2 53401  53.2182  16.7885 0001444  87.9077 272.2080 15.08859462 68959,6917.821,95.436,540.685,538.687,0.0
53401.0,STARLINK-4525,PAYLOAD,2023-11-03 04:55:30,15.08850048,0.0001688,53.218,13.5161,88.4765,271.6421,0.00023853,3.511e-05,0.0,0 STARLINK-4525,1 53401U 22097P   23307.20521835  .00003511  00000-0  23853-3 0  9998,2 53401  53.2180  13.5161 0001688  88.4765 271.6421 15.08850048 68570,6917.85,95.437,540.882,538.547,0.0
53401.0,STARLINK-4525,PAYLOAD,2023-11-03 11:17:03,15.0884945,0.000156,53.2181,12.3268,92.8623,267.2548,0.0002225,3.256e-05,0.0,0 STARLINK-4525,1 53401U 22097P   23307.47017697  .00003256  00000-0  22250-3 0  9999,2 53401  53.2181  12.3268 0001560  92.8623 267.2548 15.08849450 69103,6917.852,95.437,540.796,538.637,0.0
53401.0,STARLINK-4525,PAYLOAD,2023-11-04 04:46:18,15.08837864,0.0001486,53.2169,9.0583,93.9608,266.1554,9.5052e-05,1.225e-05,0.0,0 STARLINK-4525,1 53401U 22097P   23308.19882102  .00001225  00000-0  95052-4 0  9995,2 53401  53.2169   9.0583 0001486  93.9608 266.1554 15.08837864 68722,6917.887,95.438,540.78,538.724,0.0
53401.0,STARLINK-4525,PAYLOAD,2023-11-04 11:07:50,15.08843661,0.000157,53.218,7.8723,92.426,267.6912,0.00014091,1.956e-05,0.0,0 STARLINK-4525,1 53401U 22097P   23308.46378068  .00001956  00000-0  14091-3 0  9990,2 53401  53.2180   7.8723 0001570  92.4260 267.6912 15.08843661 69254,6917.869,95.437,540.82,538.648,0.0
53401.0,STARLINK-4525,PAYLOAD,2023-11-04 20:40:09,15.08843995,0.0001447,53.2176,6.0875,91.2673,268.8484,3.5667e-06,-2.31e-06,0.0,0 STARLINK-4525,1 53401U 22097P   23308.86121846 -.00000231  00000-0  35667-5 0  9994,2 53401  53.2176   6.0875 0001447  91.2673 268.8484 15.08843995 69310,6917.868,95.437,540.734,538.732,0.0
